CCSDS_OMM_VERS = 2.0
CREATION_DATE  = 
ORIGINATOR     = 

OBJECT_NAME    = DELTA 2 R/B(1)
OBJECT_ID      = 1990-008B
CENTER_NAME    = EARTH
REF_FRAME      = TEME
TIME_SYSTEM    = UTC
MEAN_ELEMENT_THEORY = SGP/SGP4

EPOCH          = 2026-02-06T01:57:53.466912
MEAN_MOTION    = 15.51612423
ECCENTRICITY   = .00958515
INCLINATION    = 35.6065
RA_OF_ASC_NODE = 21.5888
ARG_OF_PERICENTER = 324.0484
MEAN_ANOMALY   = 35.3829

EPHEMERIS_TYPE = 0
CLASSIFICATION_TYPE = U
NORAD_CAT_ID   = 20453
ELEMENT_SET_NO = 999
REV_AT_EPOCH   = 92121
BSTAR          = .10278644E-2
MEAN_MOTION_DOT = .77268E-3
MEAN_MOTION_DDOT = 0

CCSDS_OMM_VERS = 2.0
CREATION_DATE  = 
ORIGINATOR     = 

OBJECT_NAME    = COSMOS 2058
OBJECT_ID      = 1990-010A
CENTER_NAME    = EARTH
REF_FRAME      = TEME
TIME_SYSTEM    = UTC
MEAN_ELEMENT_THEORY = SGP/SGP4

EPOCH          = 2026-02-06T01:31:04.234944
MEAN_MOTION    = 15.11029562
ECCENTRICITY   = .00120918
INCLINATION    = 82.4633
RA_OF_ASC_NODE = 78.5842
ARG_OF_PERICENTER = 85.1173
MEAN_ANOMALY   = 275.1438

EPHEMERIS_TYPE = 0
CLASSIFICATION_TYPE = U
NORAD_CAT_ID   = 20465
ELEMENT_SET_NO = 999
REV_AT_EPOCH   = 93746
BSTAR          = .32146104E-3
MEAN_MOTION_DOT = .5409E-4
MEAN_MOTION_DDOT = 0

CCSDS_OMM_VERS = 2.0
CREATION_DATE  = 
ORIGINATOR     = 

OBJECT_NAME    = SL-14 R/B
OBJECT_ID      = 1990-010B
CENTER_NAME    = EARTH
REF_FRAME      = TEME
TIME_SYSTEM    = UTC
MEAN_ELEMENT_THEORY = SGP/SGP4

EPOCH          = 2026-02-06T04:32:16.228608
MEAN_MOTION    = 14.83541009
ECCENTRICITY   = .00209791
INCLINATION    = 82.5032
RA_OF_ASC_NODE = 296.9783
ARG_OF_PERICENTER = 46.7412
MEAN_ANOMALY   = 313.5549

EPHEMERIS_TYPE = 0
CLASSIFICATION_TYPE = U
NORAD_CAT_ID   = 20466
ELEMENT_SET_NO = 999
REV_AT_EPOCH   = 92381
BSTAR          = .75794618E-4
MEAN_MOTION_DOT = .65E-5
MEAN_MOTION_DDOT = 0

CCSDS_OMM_VERS = 2.0
CREATION_DATE  = 
ORIGINATOR     = 

OBJECT_NAME    = SL-14 R/B
OBJECT_ID      = 1990-018B
CENTER_NAME    = EARTH
REF_FRAME      = TEME
TIME_SYSTEM    = UTC
MEAN_ELEMENT_THEORY = SGP/SGP4

EPOCH          = 2026-02-06T00:59:41.894304
MEAN_MOTION    = 14.82112109
ECCENTRICITY   = .00159949
INCLINATION    = 82.5185
RA_OF_ASC_NODE = 252.6779
ARG_OF_PERICENTER = 191.3744
MEAN_ANOMALY   = 168.7111

EPHEMERIS_TYPE = 0
CLASSIFICATION_TYPE = U
NORAD_CAT_ID   = 20511
ELEMENT_SET_NO = 999
REV_AT_EPOCH   = 91789
BSTAR          = .62531791E-4
MEAN_MOTION_DOT = .522E-5
MEAN_MOTION_DDOT = 0

CCSDS_OMM_VERS = 2.0
CREATION_DATE  = 
ORIGINATOR     = 

OBJECT_NAME    = HST
OBJECT_ID      = 1990-037B
CENTER_NAME    = EARTH
REF_FRAME      = TEME
TIME_SYSTEM    = UTC
MEAN_ELEMENT_THEORY = SGP/SGP4

EPOCH          = 2026-02-05T21:35:16.293696
MEAN_MOTION    = 15.28971962
ECCENTRICITY   = .00019108
INCLINATION    = 28.4665
RA_OF_ASC_NODE = 256.7833
ARG_OF_PERICENTER = 115.5134
MEAN_ANOMALY   = 244.5659

EPHEMERIS_TYPE = 0
CLASSIFICATION_TYPE = U
NORAD_CAT_ID   = 20580
ELEMENT_SET_NO = 999
REV_AT_EPOCH   = 76844
BSTAR          = .32208368E-3
MEAN_MOTION_DOT = .9561E-4
MEAN_MOTION_DDOT = 0

CCSDS_OMM_VERS = 2.0
CREATION_DATE  = 
ORIGINATOR     = 

OBJECT_NAME    = SL-16 R/B
OBJECT_ID      = 1990-046B
CENTER_NAME    = EARTH
REF_FRAME      = TEME
TIME_SYSTEM    = UTC
MEAN_ELEMENT_THEORY = SGP/SGP4

EPOCH          = 2026-02-06T07:26:26.255904
MEAN_MOTION    = 14.15005288
ECCENTRICITY   = .0014581
INCLINATION    = 70.9999
RA_OF_ASC_NODE = 3.8134
ARG_OF_PERICENTER = 343.2232
MEAN_ANOMALY   = 16.8406

EPHEMERIS_TYPE = 0
CLASSIFICATION_TYPE = U
NORAD_CAT_ID   = 20625
ELEMENT_SET_NO = 999
REV_AT_EPOCH   = 84395
BSTAR          = .66867977E-4
MEAN_MOTION_DOT = .82E-6
MEAN_MOTION_DDOT = 0

CCSDS_OMM_VERS = 2.0
CREATION_DATE  = 
ORIGINATOR     = 

OBJECT_NAME    = COSMOS 2084
OBJECT_ID      = 1990-055A
CENTER_NAME    = EARTH
REF_FRAME      = TEME
TIME_SYSTEM    = UTC
MEAN_ELEMENT_THEORY = SGP/SGP4

EPOCH          = 2026-02-06T02:33:14.733792
MEAN_MOTION    = 15.05446581
ECCENTRICITY   = .00221036
INCLINATION    = 62.7896
RA_OF_ASC_NODE = 83.2811
ARG_OF_PERICENTER = 183.4323
MEAN_ANOMALY   = 176.6629

EPHEMERIS_TYPE = 0
CLASSIFICATION_TYPE = U
NORAD_CAT_ID   = 20663
ELEMENT_SET_NO = 999
REV_AT_EPOCH   = 93156
BSTAR          = .2617243E-3
MEAN_MOTION_DOT = .3594E-4
MEAN_MOTION_DDOT = 0

CCSDS_OMM_VERS = 2.0
CREATION_DATE  = 
ORIGINATOR     = 

OBJECT_NAME    = SL-6 R/B(2)
OBJECT_ID      = 1990-055D
CENTER_NAME    = EARTH
REF_FRAME      = TEME
TIME_SYSTEM    = UTC
MEAN_ELEMENT_THEORY = SGP/SGP4

EPOCH          = 2026-02-05T23:31:00.599520
MEAN_MOTION    = 15.03423586
ECCENTRICITY   = .0020032
INCLINATION    = 62.7852
RA_OF_ASC_NODE = 1.6695
ARG_OF_PERICENTER = 337.8166
MEAN_ANOMALY   = 22.2064

EPHEMERIS_TYPE = 0
CLASSIFICATION_TYPE = U
NORAD_CAT_ID   = 20666
ELEMENT_SET_NO = 999
REV_AT_EPOCH   = 93342
BSTAR          = .30727E-3
MEAN_MOTION_DOT = .4021E-4
MEAN_MOTION_DDOT = 0

CCSDS_OMM_VERS = 2.0
CREATION_DATE  = 
ORIGINATOR     = 

OBJECT_NAME    = SL-8 R/B
OBJECT_ID      = 1990-078B
CENTER_NAME    = EARTH
REF_FRAME      = TEME
TIME_SYSTEM    = UTC
MEAN_ELEMENT_THEORY = SGP/SGP4

EPOCH          = 2026-02-06T02:46:29.000352
MEAN_MOTION    = 14.88018583
ECCENTRICITY   = .03672628
INCLINATION    = 82.9022
RA_OF_ASC_NODE = 279.6818
ARG_OF_PERICENTER = 119.7813
MEAN_ANOMALY   = 244.0468

EPHEMERIS_TYPE = 0
CLASSIFICATION_TYPE = U
NORAD_CAT_ID   = 20775
ELEMENT_SET_NO = 999
REV_AT_EPOCH   = 80460
BSTAR          = .61148274E-3
MEAN_MOTION_DOT = .20703E-3
MEAN_MOTION_DDOT = 0

CCSDS_OMM_VERS = 2.0
CREATION_DATE  = 
ORIGINATOR     = 

OBJECT_NAME    = SL-8 R/B
OBJECT_ID      = 1991-006B
CENTER_NAME    = EARTH
REF_FRAME      = TEME
TIME_SYSTEM    = UTC
MEAN_ELEMENT_THEORY = SGP/SGP4

EPOCH          = 2026-02-05T23:10:19.531776
MEAN_MOTION    = 13.77491933
ECCENTRICITY   = .0023544
INCLINATION    = 82.9427
RA_OF_ASC_NODE = 193.6321
ARG_OF_PERICENTER = 122.6903
MEAN_ANOMALY   = 351.8214

EPHEMERIS_TYPE = 0
CLASSIFICATION_TYPE = U
NORAD_CAT_ID   = 21088
ELEMENT_SET_NO = 999
REV_AT_EPOCH   = 75970
BSTAR          = -.39552E-5
MEAN_MOTION_DOT = .12E-6
MEAN_MOTION_DDOT = 0

CCSDS_OMM_VERS = 2.0
CREATION_DATE  = 
ORIGINATOR     = 

OBJECT_NAME    = OKEAN-3
OBJECT_ID      = 1991-039A
CENTER_NAME    = EARTH
REF_FRAME      = TEME
TIME_SYSTEM    = UTC
MEAN_ELEMENT_THEORY = SGP/SGP4

EPOCH          = 2026-02-05T22:59:26.689056
MEAN_MOTION    = 15.04552001
ECCENTRICITY   = .0016438
INCLINATION    = 82.5182
RA_OF_ASC_NODE = 7.5748
ARG_OF_PERICENTER = 80.6738
MEAN_ANOMALY   = 279.6346

EPHEMERIS_TYPE = 0
CLASSIFICATION_TYPE = U
NORAD_CAT_ID   = 21397
ELEMENT_SET_NO = 999
REV_AT_EPOCH   = 86026
BSTAR          = .34303E-3
MEAN_MOTION_DOT = .4849E-4
MEAN_MOTION_DDOT = 0

CCSDS_OMM_VERS = 2.0
CREATION_DATE  = 
ORIGINATOR     = 

OBJECT_NAME    = COSMOS 2151
OBJECT_ID      = 1991-042A
CENTER_NAME    = EARTH
REF_FRAME      = TEME
TIME_SYSTEM    = UTC
MEAN_ELEMENT_THEORY = SGP/SGP4

EPOCH          = 2026-02-06T06:20:55.523328
MEAN_MOTION    = 14.99982617
ECCENTRICITY   = .00131139
INCLINATION    = 82.4965
RA_OF_ASC_NODE = 113.9891
ARG_OF_PERICENTER = 159.3137
MEAN_ANOMALY   = 200.8621

EPHEMERIS_TYPE = 0
CLASSIFICATION_TYPE = U
NORAD_CAT_ID   = 21422
ELEMENT_SET_NO = 999
REV_AT_EPOCH   = 85848
BSTAR          = .201093E-3
MEAN_MOTION_DOT = .2529E-4
MEAN_MOTION_DDOT = 0

