DELTA 2 R/B(1)          
1 20453U 90008B   26037.08186883  .00077268  00000+0  10279-2 0  9991
2 20453  35.6065  21.5888 0095851 324.0484  35.3829 15.51612423921211
COSMOS 2058             
1 20465U 90010A   26037.06324346  .00005409  00000+0  32146-3 0  9999
2 20465  82.4633  78.5842 0012091  85.1173 275.1438 15.11029562937468
SL-14 R/B               
1 20466U 90010B   26037.18907672  .00000650  00000+0  75795-4 0  9993
2 20466  82.5032 296.9783 0020979  46.7412 313.5549 14.83541009923813
SL-14 R/B               
1 20511U 90018B   26037.04145711  .00000522  00000+0  62532-4 0  9998
2 20511  82.5185 252.6779 0015994 191.3744 168.7111 14.82112109917893
HST                     
1 20580U 90037B   26036.89949414  .00009561  00000+0  32208-3 0  9997
2 20580  28.4665 256.7833 0001910 115.5134 244.5659 15.28971962768447
SL-16 R/B               
1 20625U 90046B   26037.31002611  .00000082  00000+0  66868-4 0  9993
2 20625  70.9999   3.8134 0014581 343.2232  16.8406 14.15005288843955
COSMOS 2084             
1 20663U 90055A   26037.10642053  .00003594  00000+0  26172-3 0  9996
2 20663  62.7896  83.2811 0022103 183.4323 176.6629 15.05446581931562
SL-6 R/B(2)             
1 20666U 90055D   26036.97986805  .00004021  00000+0  30727-3 0  9996
2 20666  62.7852   1.6695 0020032 337.8166  22.2064 15.03423586933424
SL-8 R/B                
1 20775U 90078B   26037.11561343  .00020703  00000+0  61148-3 0  9991
2 20775  82.9022 279.6818 0367262 119.7813 244.0468 14.88018583804605
SL-8 R/B                
1 21088U 91006B   26036.96550384  .00000012  00000+0 -39552-5 0  9994
2 21088  82.9427 193.6321 0023544 122.6903 351.8214 13.77491933759708
OKEAN-3                 
1 21397U 91039A   26036.95794779  .00004849  00000+0  34303-3 0  9998
2 21397  82.5182   7.5748 0016438  80.6738 279.6346 15.04552001860267
COSMOS 2151             
1 21422U 91042A   26037.26453152  .00002529  00000+0  20109-3 0  9995
2 21422  82.4965 113.9891 0013113 159.3137 200.8621 14.99982617858485
